{
  "norad_id": 68142,
  "name": "STARLINK-36604",
  "history": [
    {
      "epoch": "2026-03-28T21:49:41.637216Z",
      "apogee_km": 328.7541252259289,
      "perigee_km": 327.2503405643438,
      "latitude_deg": -4.546813727674686e-05,
      "longitude_deg": -45.64677220778634,
      "height_km": 331.49768719323305,
      "semi_major_axis_km": 6706.139232895136,
      "eccentricity": 0.00011212,
      "inclination_deg": 97.2844,
      "raan_deg": 108.0999,
      "arg_perigee_deg": 115.2749,
      "mean_anomaly_deg": 244.8635,
      "mean_motion_rev_day": 15.80861828
    },
    {
      "epoch": "2026-03-29T02:23:09.425760Z",
      "apogee_km": 328.8872559795245,
      "perigee_km": 327.2160737642389,
      "latitude_deg": 7.002352003914798e-06,
      "longitude_deg": -113.99874333172247,
      "height_km": 331.6335811886788,
      "semi_major_axis_km": 6706.188664871882,
      "eccentricity": 0.0001246,
      "inclination_deg": 97.2844,
      "raan_deg": 108.3009,
      "arg_perigee_deg": 119.1977,
      "mean_anomaly_deg": 240.9416,
      "mean_motion_rev_day": 15.80844349
    },
    {
      "epoch": "2026-03-30T01:10:28.009056Z",
      "apogee_km": 329.1998568957306,
      "perigee_km": 326.92377301793294,
      "latitude_deg": -6.135581177057589e-05,
      "longitude_deg": -95.75775477806782,
      "height_km": 331.253635606822,
      "semi_major_axis_km": 6706.1988149568315,
      "eccentricity": 0.0001697,
      "inclination_deg": 97.2842,
      "raan_deg": 109.3052,
      "arg_perigee_deg": 90.9376,
      "mean_anomaly_deg": 269.2086,
      "mean_motion_rev_day": 15.8084076
    },
    {
      "epoch": "2026-03-30T01:10:28.009920Z",
      "apogee_km": 329.1998568957306,
      "perigee_km": 326.92377301793294,
      "latitude_deg": -6.13558117658082e-05,
      "longitude_deg": -95.75775838792227,
      "height_km": 331.253635606824,
      "semi_major_axis_km": 6706.1988149568315,
      "eccentricity": 0.0001697,
      "inclination_deg": 97.2842,
      "raan_deg": 109.3052,
      "arg_perigee_deg": 90.9376,
      "mean_anomaly_deg": 269.2086,
      "mean_motion_rev_day": 15.8084076
    }
  ]
}